OBJECT_NAME,OBJECT_ID,EPOCH,MEAN_MOTION,ECCENTRICITY,INCLINATION,RA_OF_ASC_NODE,ARG_OF_PERICENTER,MEAN_ANOMALY,EPHEMERIS_TYPE,CLASSIFICATION_TYPE,NORAD_CAT_ID,ELEMENT_SET_NO,REV_AT_EPOCH,BSTAR,MEAN_MOTION_DOT,MEAN_MOTION_DDOT
ONEWEB-0611,2022-166AJ,2026-07-14T03:06:36.601056,13.21826687,.0002214,87.9235,238.6143,97.4033,262.7352,0,U,54674,999,17500,.14927E-3,.75E-6,0
ONEWEB-0612,2022-166AK,2026-07-14T03:26:00.868704,13.21827125,.0001958,87.9248,238.6102,91.8095,268.3263,0,U,54675,999,17499,.34259E-3,.155E-5,0
ONEWEB-0615,2022-166AL,2026-07-14T04:45:55.738656,13.21823816,.0002192,87.9235,238.6117,101.7213,258.4167,0,U,54676,999,17501,-.12176E-3,-.37E-6,0
ONEWEB-0655,2022-166AM,2026-07-14T04:12:01.245024,13.21823968,.0001908,87.9233,238.6179,100.3234,259.8116,0,U,54677,999,17500,.48744E-4,.33E-6,0
ONEWEB-0659,2022-166AN,2026-07-14T02:47:14.528832,13.21828272,.0002492,87.9238,238.6279,102.0284,258.1130,0,U,54678,999,17508,.11735E-2,.498E-5,0
ONEWEB-0685,2022-166AP,2026-07-14T04:35:44.228832,13.21848005,.0001727,87.9232,238.6051,92.8852,267.2479,0,U,54679,999,17498,.10653E-3,.57E-6,0
ONEWEB-0712,2022-166AQ,2026-07-14T02:45:29.626272,13.16595073,.0001788,87.9081,223.4260,106.3462,253.7866,0,U,54680,999,17560,-.1471E-3,-.43E-6,0
ONEWEB-0714,2022-166AR,2026-07-14T02:54:32.085216,13.21825847,.0002012,87.9235,238.6172,105.0633,255.0723,0,U,54681,999,17509,.96274E-5,.17E-6,0
ONEWEB-0532,2023-004A,2026-07-13T23:45:22.702176,13.17648726,.0001975,87.9141,0.5314,82.8147,277.3209,0,U,55140,999,17111,-.26955E-4,.2E-7,0
ONEWEB-0533,2023-004B,2026-07-13T20:03:03.904704,13.12442592,.000165,87.8962,345.3711,93.8676,266.2641,0,U,55141,999,17155,-.11198E-2,-.39E-5,0
ONEWEB-0541,2023-004C,2026-07-14T00:55:50.077920,13.11414990,.0002034,87.8893,15.7129,89.0085,271.1275,0,U,55142,999,16946,.11773E-2,.43E-5,0
ONEWEB-0543,2023-004D,2026-07-13T20:56:15.183744,13.18686543,.0001875,87.9185,330.1614,105.0325,255.1014,0,U,55143,999,17321,-.19231E-4,.5E-7,0
ONEWEB-0544,2023-004E,2026-07-13T22:35:47.955264,13.18686887,.0002048,87.9186,330.1471,101.1703,258.9660,0,U,55144,999,17322,.18548E-4,.2E-6,0
ONEWEB-0560,2023-004F,2026-07-13T22:26:05.405856,13.18684481,.0002073,87.9187,330.1378,104.8512,255.2850,0,U,55145,999,17323,.76684E-5,.16E-6,0
ONEWEB-0565,2023-004G,2026-07-13T22:16:23.219328,13.18687228,.0002287,87.9177,330.1647,93.6858,266.4536,0,U,55146,999,17322,-.47362E-4,-.6E-7,0
ONEWEB-0567,2023-004H,2026-07-13T22:06:40.003776,13.18687594,.0002256,87.9187,330.1523,98.7816,261.3572,0,U,55147,999,17322,-.60151E-4,-.11E-6,0
ONEWEB-0569,2023-004J,2026-07-13T19:44:34.831968,13.13471240,.0002682,87.8989,314.9206,113.0142,247.1270,0,U,55148,999,17367,-.84819E-3,-.297E-5,0
ONEWEB-0570,2023-004K,2026-07-13T20:05:15.821088,13.18686758,.0002078,87.9187,330.1674,88.9658,271.1712,0,U,55149,999,17320,-.23051E-4,.4E-7,0
ONEWEB-0571,2023-004L,2026-07-13T19:55:34.153824,13.18683713,.0003151,87.9186,330.1677,102.1887,257.9598,0,U,55150,999,17321,.87312E-3,.357E-5,0
ONEWEB-0572,2023-004M,2026-07-14T00:30:19.624608,13.17651009,.0002037,87.9143,0.5265,91.7786,268.3579,0,U,55151,999,17101,-.33333E-4,0,0
ONEWEB-0573,2023-004N,2026-07-13T21:35:05.015040,13.18687060,.0002746,87.9184,330.1560,96.0056,264.1389,0,U,55152,999,17321,-.19281E-3,-.63E-6,0
ONEWEB-0588,2023-004P,2026-07-13T21:25:23.849760,13.18686318,.0002182,87.9184,330.1570,86.5337,273.6045,0,U,55153,999,17321,-.14121E-3,-.43E-6,0
ONEWEB-0598,2023-004Q,2026-07-14T00:24:05.491872,13.11418453,.0002503,87.8885,15.7254,99.8355,260.3056,0,U,55154,999,16941,.60976E-3,.229E-5,0
ONEWEB-0599,2023-004R,2026-07-13T23:34:25.537728,13.17650305,.0001864,87.9142,0.5329,99.8834,260.2508,0,U,55155,999,17101,-.14366E-4,.7E-7,0
ONEWEB-0614,2023-004S,2026-07-14T00:16:45.566400,13.11418190,.0001829,87.8882,15.7351,84.0791,276.0545,0,U,55156,999,16935,-.42774E-4,-.2E-7,0
ONEWEB-0616,2023-004T,2026-07-14T00:35:10.429728,13.17650931,.000173,87.9144,0.5284,122.4870,237.6429,0,U,55157,999,17123,.70145E-4,.4E-6,0
ONEWEB-0617,2023-004U,2026-07-13T23:59:39.060960,13.11419011,.0001938,87.8887,15.7296,77.6677,282.4668,0,U,55158,999,16937,-.11748E-2,-.404E-5,0
ONEWEB-0618,2023-004V,2026-07-13T23:20:46.607424,15.13366198,.00119,86.9104,166.7586,179.3545,180.7712,0,U,55159,999,18631,.11348E-3,.206E-4,0
ONEWEB-0619,2023-004W,2026-07-13T23:31:59.747232,13.17650524,.0001442,87.9154,0.5203,88.0551,272.0745,0,U,55160,999,17112,.77158E-4,.43E-6,0
ONEWEB-0620,2023-004X,2026-07-14T01:42:11.770848,13.11417484,.0002125,87.8879,15.7226,90.7409,269.3962,0,U,55161,999,16935,-.15143E-2,-.524E-5,0
ONEWEB-0621,2023-004Y,2026-07-14T00:31:25.146048,13.11417646,.0001735,87.8890,15.7236,83.3682,276.7644,0,U,55162,999,16932,.12117E-2,.442E-5,0
